{
  "type": "FeatureCollection",
  "features": [
    {
      "type": "Feature",
      "properties": {},
      "geometry": {
        "type": "LineString",
        "coordinates": [
          [
            107.008038,
            -6.350512
          ],
          [
            107.008162,
            -6.349765
          ],
          [
            107.00884,
            -6.349897
          ],
          [
            107.008806,
            -6.350168
          ],
          [
            107.0087372,
            -6.3502875
          ],
          [
            107.0086301,
            -6.3504002
          ],
          [
            107.0084652,
            -6.3505169
          ],
          [
            107.0082724,
            -6.3505665
          ],
          [
            107.008038,
            -6.350512
          ]
        ]
      }
    }
  ]
}